STARLINK-1559           
1 46077U 20055BC  26068.23360559  .00042685  00000+0  14779-2 0  9995
2 46077  53.0254  76.0659 0004229  33.9710 326.1559 15.29461733309518
STARLINK-32424          
1 61548U 24184S   26068.16285319 -.00000640  00000+0 -94944-5 0  9996
2 61548  53.1610  16.5816 0001011  93.8363 266.2753 15.30191613 78426
